     2              NAVIGATION DATA                         RINEX VERSION / TYPE
CCRINEXN V1.6.0 UX  CDDIS               04-MAY-23 08:31     PGM / RUN BY / DATE 
IGS BROADCAST EPHEMERIS FILE                                COMMENT             
    0.2235D-07  0.2235D-07 -0.1192D-06 -0.1192D-06          ION ALPHA           
    0.1270D+06  0.8192D+05 -0.1966D+06  0.0000D+00          ION BETA            
   -0.931322574615D-09-0.888178419700D-15   503808     2260 DELTA-UTC: A0,A1,T,W
    18                                                      LEAP SECONDS        
                                                            END OF HEADER       
25 23  5  3 13 59 44.0 0.440161675215D-03 0.272848410532D-11 0.000000000000D+00
    0.300000000000D+01 0.108250000000D+03 0.495770650838D-08-0.257114998786D+01
    0.556372106075D-05 0.111287932377D-01 0.582449138165D-05 0.515374324417D+04
    0.309584000000D+06 0.232830643654D-06 0.645032355730D+00-0.968575477600D-07
    0.953585707598D+00 0.262093750000D+03 0.104888171710D+01-0.828463080241D-08
    0.510735559900D-09 0.100000000000D+01 0.226000000000D+04 0.000000000000D+00
    0.200000000000D+01 0.000000000000D+00 0.558793544769D-08 0.300000000000D+01
    0.302418000000D+06 0.400000000000D+01 0.000000000000D+00 0.000000000000D+00
28 23  5  3 13 59 44.0 0.736741349101D-04 0.443378667114D-11 0.000000000000D+00
    0.236000000000D+03 0.403125000000D+01 0.430196490839D-08 0.306303464031D+01
   -0.931322574616D-08 0.762244686484D-03 0.124648213387D-04 0.515367917252D+04
    0.309584000000D+06 0.558793544769D-08-0.424744148619D+00-0.745058059692D-08
    0.961854303447D+00 0.137531250000D+03 0.171282518851D+01-0.783068332225D-08
   -0.169292766009D-09 0.100000000000D+01 0.226000000000D+04 0.000000000000D+00
    0.200000000000D+01 0.000000000000D+00-0.139698386192D-08 0.236000000000D+03
    0.302418000000D+06 0.400000000000D+01 0.000000000000D+00 0.000000000000D+00
31 23  5  3 13 59 44.0-0.215324107557D-03-0.795807864051D-12 0.000000000000D+00
    0.800000000000D+01 0.915625000000D+01 0.446411451972D-08-0.247556494670D+01
    0.199303030968D-06 0.105947378324D-01 0.124312937260D-04 0.515421427918D+04
    0.309584000000D+06 0.353902578354D-07-0.367259439544D+00-0.216066837311D-06
    0.954829274278D+00 0.136843750000D+03 0.526616453266D+00-0.780532512312D-08
   -0.457161899771D-10 0.100000000000D+01 0.226000000000D+04 0.000000000000D+00
    0.200000000000D+01 0.000000000000D+00-0.135041773319D-07 0.800000000000D+01
    0.302418000000D+06 0.400000000000D+01 0.000000000000D+00 0.000000000000D+00
 1 23  5  3 14  0  0.0 0.188194215298D-03-0.295585778076D-11 0.000000000000D+00
    0.790000000000D+02-0.466562500000D+02 0.356300555634D-08-0.102664412613D+01
   -0.243447721005D-05 0.127957570367D-01 0.112969428301D-04 0.515364991570D+04
    0.309600000000D+06 0.152736902237D-06 0.276929415615D+01 0.268220901489D-06
    0.990123009729D+00 0.176843750000D+03 0.954933409175D+00-0.763496088391D-08
   -0.192508018732D-09 0.100000000000D+01 0.226000000000D+04 0.000000000000D+00
    0.200000000000D+01 0.000000000000D+00 0.465661287308D-08 0.790000000000D+02
    0.307738000000D+06 0.400000000000D+01 0.000000000000D+00 0.000000000000D+00
 2 23  5  3 14  0  0.0-0.599935650825D-03 0.386535248253D-11 0.000000000000D+00
    0.760000000000D+02-0.730625000000D+02 0.386194657986D-08 0.307012403787D+01
   -0.365264713764D-05 0.173626928590D-01 0.118557363749D-04 0.515953114700D+04
    0.309600000000D+06 0.195577740669D-06 0.267104967768D+01 0.122934579849D-06
    0.967582166081D+00 0.147906250000D+03-0.129092799844D+01-0.739709383294D-08
   -0.240367155114D-09 0.100000000000D+01 0.226000000000D+04 0.000000000000D+00
    0.200000000000D+01 0.000000000000D+00-0.176951289177D-07 0.760000000000D+02
    0.302418000000D+06 0.400000000000D+01 0.000000000000D+00 0.000000000000D+00
 3 23  5  3 14  0  0.0-0.313626602292D-03 0.103455022327D-10 0.000000000000D+00
    0.100000000000D+02 0.468437500000D+02 0.409909931537D-08-0.217781641665D+01
    0.244937837124D-05 0.473523477558D-02 0.736303627491D-05 0.515367394066D+04
    0.309600000000D+06 0.558793544769D-08-0.248376450891D+01-0.726431608200D-07
    0.978666713923D+00 0.247531250000D+03 0.101287073047D+01-0.780353933445D-08
    0.496449250533D-09 0.100000000000D+01 0.226000000000D+04 0.000000000000D+00
    0.200000000000D+01 0.000000000000D+00 0.186264514923D-08 0.100000000000D+02
    0.302418000000D+06 0.400000000000D+01 0.000000000000D+00 0.000000000000D+00
 4 23  5  3 14  0  0.0 0.320896506309D-04 0.954969436862D-11 0.000000000000D+00
    0.770000000000D+02-0.444687500000D+02 0.472698261208D-08 0.686154500175D+00
   -0.228546559811D-05 0.236049375963D-02 0.554323196411D-05 0.515367401314D+04
    0.309600000000D+06 0.558793544769D-08-0.140251650465D+01 0.596046447754D-07
    0.962250085693D+00 0.274187500000D+03-0.297551325480D+01-0.824105755884D-08
   -0.235366946835D-09 0.100000000000D+01 0.226000000000D+04 0.000000000000D+00
    0.200000000000D+01 0.000000000000D+00-0.465661287308D-08 0.589000000000D+03
    0.302449000000D+06 0.400000000000D+01 0.000000000000D+00 0.000000000000D+00
 5 23  5  3 14  0  0.0-0.125770922750D-03-0.147792889038D-11 0.000000000000D+00
    0.173000000000D+03 0.514062500000D+02 0.452125975719D-08 0.157864865516D+01
    0.257231295109D-05 0.588223256636D-02 0.788085162640D-05 0.515365541267D+04
    0.309600000000D+06-0.353902578354D-07-0.253001587674D+01-0.875443220139D-07
    0.965725493360D+00 0.233031250000D+03 0.113793668402D+01-0.814855370568D-08
    0.520735976458D-09 0.100000000000D+01 0.226000000000D+04 0.000000000000D+00
    0.200000000000D+01 0.000000000000D+00-0.111758708954D-07 0.173000000000D+03
    0.302473000000D+06 0.400000000000D+01 0.000000000000D+00 0.000000000000D+00
 6 23  5  3 14  0  0.0 0.588066410273D-03 0.227373675443D-12 0.000000000000D+00
    0.560000000000D+02-0.511562500000D+02 0.351157484262D-08-0.847070036598D+00
   -0.266544520855D-05 0.281909422483D-02 0.122208148241D-04 0.515366225815D+04
    0.309600000000D+06-0.987201929092D-07 0.276097265972D+01 0.372529029846D-08
    0.989339087521D+00 0.161031250000D+03-0.750083702786D+00-0.752674209045D-08
   -0.100361323309D-09 0.100000000000D+01 0.226000000000D+04 0.000000000000D+00
    0.200000000000D+01 0.000000000000D+00 0.372529029846D-08 0.560000000000D+02
    0.302418000000D+06 0.400000000000D+01 0.000000000000D+00 0.000000000000D+00
 8 23  5  3 14  0  0.0-0.120698474348D-03-0.181898940355D-11 0.000000000000D+00
    0.600000000000D+02-0.547187500000D+02 0.499877964781D-08 0.116526402739D+01
   -0.255182385445D-05 0.846117280889D-02 0.295601785183D-05 0.515368778610D+04
    0.309600000000D+06 0.465661287308D-07 0.167797815363D+01 0.782310962677D-07
    0.958683453380D+00 0.319437500000D+03 0.262705671889D+00-0.858142887953D-08
   -0.454304637897D-09 0.100000000000D+01 0.226000000000D+04 0.000000000000D+00
    0.200000000000D+01 0.000000000000D+00 0.512227416039D-08 0.600000000000D+02
    0.302467000000D+06 0.400000000000D+01 0.000000000000D+00 0.000000000000D+00
10 23  5  3 14  0  0.0-0.353860668838D-04-0.159161572810D-11 0.000000000000D+00
    0.250000000000D+02 0.490000000000D+02 0.408481300600D-08-0.312912083663D+01
    0.250712037086D-05 0.847852008883D-02 0.783242285252D-05 0.515368189812D+04
    0.309600000000D+06-0.149011611938D-07-0.248642035330D+01-0.949949026108D-07
    0.978407553596D+00 0.237656250000D+03-0.242914227262D+01-0.772782189480D-08
    0.586095841816D-09 0.100000000000D+01 0.226000000000D+04 0.000000000000D+00
    0.200000000000D+01 0.000000000000D+00 0.232830643654D-08 0.250000000000D+02
    0.302418000000D+06 0.400000000000D+01 0.000000000000D+00 0.000000000000D+00
11 23  5  3 14  0  0.0-0.183651689440D-03-0.134150468512D-10 0.000000000000D+00
    0.193000000000D+03-0.413750000000D+02 0.405338312539D-08 0.557859279318D+00
   -0.216066837311D-05 0.784108880907D-03 0.123865902424D-04 0.515374629974D+04
    0.309600000000D+06 0.279396772385D-07 0.280280401661D+01 0.670552253723D-07
    0.965531819099D+00 0.142906250000D+03-0.282186749813D+01-0.781782564382D-08
   -0.771460705863D-10 0.100000000000D+01 0.226000000000D+04 0.000000000000D+00
    0.200000000000D+01 0.000000000000D+00-0.884756445885D-08 0.961000000000D+03
    0.305706000000D+06 0.400000000000D+01 0.000000000000D+00 0.000000000000D+00
12 23  5  3 14  0  0.0-0.371484551579D-03-0.466116034659D-11 0.000000000000D+00
    0.920000000000D+02 0.103031250000D+03 0.479305679291D-08-0.242268056054D+01
    0.536814332008D-05 0.886658148374D-02 0.493600964546D-05 0.515361383438D+04
    0.309600000000D+06 0.143423676491D-06 0.727070111308D+00 0.335276126862D-07
    0.965839735559D+00 0.287468750000D+03 0.136656918129D+01-0.821677083292D-08
    0.480734310228D-09 0.100000000000D+01 0.226000000000D+04 0.000000000000D+00
    0.400000000000D+01 0.000000000000D+00-0.125728547573D-07 0.920000000000D+02
    0.302418000000D+06 0.400000000000D+01 0.000000000000D+00 0.000000000000D+00
13 23  5  3 14  0  0.0 0.514673534781D-03 0.545696821064D-11 0.000000000000D+00
    0.410000000000D+02-0.494687500000D+02 0.460947771753D-08 0.773684353047D+00
   -0.271201133728D-05 0.690411939286D-02 0.653602182865D-05 0.515366553688D+04
    0.309600000000D+06-0.335276126862D-07-0.129907827786D+01 0.670552253723D-07
    0.969315271963D+00 0.257843750000D+03 0.909984608969D+00-0.825712965688D-08
   -0.422160441820D-09 0.100000000000D+01 0.226000000000D+04 0.000000000000D+00
    0.200000000000D+01 0.000000000000D+00-0.111758708954D-07 0.410000000000D+02
    0.304783000000D+06 0.400000000000D+01 0.000000000000D+00 0.000000000000D+00
